{
  "type": "FeatureCollection",
  "features": [
    {
      "type": "Feature",
      "properties": {
        "norad_id": 35580,
        "name": "COSMOS 2251 DEB",
        "group": "cosmos-2251-debris",
        "lat": -28.318169619887072,
        "lon": 163.58916112198733,
        "alt_km": 1138.6962526454163,
        "timestamp": "2025-12-16T08:59:43.557854+00:00",
        "meta_object_name": "COSMOS 2251 DEB",
        "meta_object_id": "1993-036ALX",
        "meta_epoch": "2025-12-15T21:00:04.999104",
        "meta_mean_motion": 13.83885531,
        "meta_eccentricity": 0.02811057,
        "meta_inclination": 73.9013,
        "meta_ra_of_asc_node": 173.3912,
        "meta_arg_of_pericenter": 177.9882,
        "meta_mean_anomaly": 182.2449,
        "meta_ephemeris_type": 0,
        "meta_classification_type": "U",
        "meta_norad_cat_id": 35580,
        "meta_element_set_no": 999,
        "meta_rev_at_epoch": 62300,
        "meta_bstar": 0.001547595,
        "meta_mean_motion_dot": 2.307e-05,
        "meta_mean_motion_ddot": 0,
        "tle_line1": "1 35580U 93036ALX 25349.87505786  .00002307  00000+0  15476-2 0  9997",
        "tle_line2": "2 35580  73.9013 173.3912 0281105 177.9882 182.2449 13.83885531623007"
      },
      "geometry": {
        "type": "Point",
        "coordinates": [
          163.58916112198733,
          -28.318169619887072
        ]
      }
    },
    {
      "type": "Feature",
      "properties": {
        "norad_id": 35583,
        "name": "COSMOS 2251 DEB",
        "group": "cosmos-2251-debris",
        "lat": 13.794571939016016,
        "lon": -149.8126731153515,
        "alt_km": 1283.0408986679058,
        "timestamp": "2025-12-16T08:59:43.557864+00:00",
        "meta_object_name": "COSMOS 2251 DEB",
        "meta_object_id": "1993-036AMA",
        "meta_epoch": "2025-12-15T08:07:13.110816",
        "meta_mean_motion": 13.55339959,
        "meta_eccentricity": 0.03853461,
        "meta_inclination": 73.9163,
        "meta_ra_of_asc_node": 207.8047,
        "meta_arg_of_pericenter": 231.6769,
        "meta_mean_anomaly": 124.9115,
        "meta_ephemeris_type": 0,
        "meta_classification_type": "U",
        "meta_norad_cat_id": 35583,
        "meta_element_set_no": 999,
        "meta_rev_at_epoch": 82447,
        "meta_bstar": 0.00076925209,
        "meta_mean_motion_dot": 8.34e-06,
        "meta_mean_motion_ddot": 0,
        "tle_line1": "1 35583U 93036AMA 25349.33834619  .00000834  00000+0  76925-3 0  9991",
        "tle_line2": "2 35583  73.9163 207.8047 0385346 231.6769 124.9115 13.55339959824476"
      },
      "geometry": {
        "type": "Point",
        "coordinates": [
          -149.8126731153515,
          13.794571939016016
        ]
      }
    },
    {
      "type": "Feature",
      "properties": {
        "norad_id": 35585,
        "name": "COSMOS 2251 DEB",
        "group": "cosmos-2251-debris",
        "lat": -43.059760123927276,
        "lon": 177.92443830298063,
        "alt_km": 784.9144793160376,
        "timestamp": "2025-12-16T08:59:43.557873+00:00",
        "meta_object_name": "COSMOS 2251 DEB",
        "meta_object_id": "1993-036AMC",
        "meta_epoch": "2025-12-15T05:46:46.766784",
        "meta_mean_motion": 13.75256406,
        "meta_eccentricity": 0.03105425,
        "meta_inclination": 73.9727,
        "meta_ra_of_asc_node": 344.2358,
        "meta_arg_of_pericenter": 255.9946,
        "meta_mean_anomaly": 118.6807,
        "meta_ephemeris_type": 0,
        "meta_classification_type": "U",
        "meta_norad_cat_id": 35585,
        "meta_element_set_no": 999,
        "meta_rev_at_epoch": 64098,
        "meta_bstar": 0.00097189653,
        "meta_mean_motion_dot": 1.299e-05,
        "meta_mean_motion_ddot": 0,
        "tle_line1": "1 35585U 93036AMC 25349.24081906  .00001299  00000+0  97190-3 0  9999",
        "tle_line2": "2 35585  73.9727 344.2358 0310542 255.9946 118.6807 13.75256406640984"
      },
      "geometry": {
        "type": "Point",
        "coordinates": [
          177.92443830298063,
          -43.059760123927276
        ]
      }
    },
    {
      "type": "Feature",
      "properties": {
        "norad_id": 35586,
        "name": "COSMOS 2251 DEB",
        "group": "cosmos-2251-debris",
        "lat": 65.75823006490539,
        "lon": 77.13662500496538,
        "alt_km": 910.6741280122596,
        "timestamp": "2025-12-16T08:59:43.557883+00:00",
        "meta_object_name": "COSMOS 2251 DEB",
        "meta_object_id": "1993-036AMD",
        "meta_epoch": "2025-12-14T14:41:57.929856",
        "meta_mean_motion": 13.52086543,
        "meta_eccentricity": 0.04045341,
        "meta_inclination": 74.0206,
        "meta_ra_of_asc_node": 299.4762,
        "meta_arg_of_pericenter": 174.414,
        "meta_mean_anomaly": 3.0917,
        "meta_ephemeris_type": 0,
        "meta_classification_type": "U",
        "meta_norad_cat_id": 35586,
        "meta_element_set_no": 999,
        "meta_rev_at_epoch": 60407,
        "meta_bstar": 0.00036473262,
        "meta_mean_motion_dot": 3.81e-06,
        "meta_mean_motion_ddot": 0,
        "tle_line1": "1 35586U 93036AMD 25348.61247604  .00000381  00000+0  36473-3 0  9997",
        "tle_line2": "2 35586  74.0206 299.4762 0404534 174.4140   3.0917 13.52086543604072"
      },
      "geometry": {
        "type": "Point",
        "coordinates": [
          77.13662500496538,
          65.75823006490539
        ]
      }
    },
    {
      "type": "Feature",
      "properties": {
        "norad_id": 35587,
        "name": "COSMOS 2251 DEB",
        "group": "cosmos-2251-debris",
        "lat": 70.25288044870692,
        "lon": 178.3093072950742,
        "alt_km": 700.9576065529927,
        "timestamp": "2025-12-16T08:59:43.557893+00:00",
        "meta_object_name": "COSMOS 2251 DEB",
        "meta_object_id": "1993-036AME",
        "meta_epoch": "2025-12-14T20:37:50.785248",
        "meta_mean_motion": 14.71528954,
        "meta_eccentricity": 0.01025521,
        "meta_inclination": 74.0053,
        "meta_ra_of_asc_node": 54.2968,
        "meta_arg_of_pericenter": 241.4805,
        "meta_mean_anomaly": 117.6013,
        "meta_ephemeris_type": 0,
        "meta_classification_type": "U",
        "meta_norad_cat_id": 35587,
        "meta_element_set_no": 999,
        "meta_rev_at_epoch": 66377,
        "meta_bstar": 0.00024093768,
        "meta_mean_motion_dot": 1.587e-05,
        "meta_mean_motion_ddot": 0,
        "tle_line1": "1 35587U 93036AME 25348.85961557  .00001587  00000+0  24094-3 0  9999",
        "tle_line2": "2 35587  74.0053  54.2968 0102552 241.4805 117.6013 14.71528954663776"
      },
      "geometry": {
        "type": "Point",
        "coordinates": [
          178.3093072950742,
          70.25288044870692
        ]
      }
    },
    {
      "type": "Feature",
      "properties": {
        "norad_id": 35593,
        "name": "COSMOS 2251 DEB",
        "group": "cosmos-2251-debris",
        "lat": -4.998742420516452,
        "lon": -79.52250492975816,
        "alt_km": 779.8803016506617,
        "timestamp": "2025-12-16T08:59:43.557903+00:00",
        "meta_object_name": "COSMOS 2251 DEB",
        "meta_object_id": "1993-036AML",
        "meta_epoch": "2025-12-15T04:23:19.904064",
        "meta_mean_motion": 14.25607605,
        "meta_eccentricity": 0.01051999,
        "meta_inclination": 74.0859,
        "meta_ra_of_asc_node": 284.0519,
        "meta_arg_of_pericenter": 290.0148,
        "meta_mean_anomaly": 68.9696,
        "meta_ephemeris_type": 0,
        "meta_classification_type": "U",
        "meta_norad_cat_id": 35593,
        "meta_element_set_no": 999,
        "meta_rev_at_epoch": 85100,
        "meta_bstar": 0.00058381828,
        "meta_mean_motion_dot": 1.439e-05,
        "meta_mean_motion_ddot": 0,
        "tle_line1": "1 35593U 93036AML 25349.18286926  .00001439  00000+0  58382-3 0  9996",
        "tle_line2": "2 35593  74.0859 284.0519 0105199 290.0148  68.9696 14.25607605851002"
      },
      "geometry": {
        "type": "Point",
        "coordinates": [
          -79.52250492975816,
          -4.998742420516452
        ]
      }
    },
    {
      "type": "Feature",
      "properties": {
        "norad_id": 35594,
        "name": "COSMOS 2251 DEB",
        "group": "cosmos-2251-debris",
        "lat": 31.95019063911788,
        "lon": 109.63085128494781,
        "alt_km": 622.4359374447358,
        "timestamp": "2025-12-16T08:59:43.557913+00:00",
        "meta_object_name": "COSMOS 2251 DEB",
        "meta_object_id": "1993-036AMM",
        "meta_epoch": "2025-12-11T07:49:43.768128",
        "meta_mean_motion": 14.87869065,
        "meta_eccentricity": 0.00302327,
        "meta_inclination": 73.8067,
        "meta_ra_of_asc_node": 109.3962,
        "meta_arg_of_pericenter": 220.7507,
        "meta_mean_anomaly": 139.1411,
        "meta_ephemeris_type": 0,
        "meta_classification_type": "U",
        "meta_norad_cat_id": 35594,
        "meta_element_set_no": 999,
        "meta_rev_at_epoch": 88164,
        "meta_bstar": 0.003372362,
        "meta_mean_motion_dot": 0.00031222,
        "meta_mean_motion_ddot": 0,
        "tle_line1": "1 35594U 93036AMM 25345.32620102  .00031222  00000+0  33724-2 0  9992",
        "tle_line2": "2 35594  73.8067 109.3962 0030232 220.7507 139.1411 14.87869065881643"
      },
      "geometry": {
        "type": "Point",
        "coordinates": [
          109.63085128494781,
          31.95019063911788
        ]
      }
    }
  ]
}